[{"col1":"1 39446U 13066AG  25133.85863272  .00003449  00000+0  33122-3 0  9990"},{"col1":"2 39446  97.8225  84.9388 0052580 206.1433 153.7130 14.92697415617923"},{"col1":"0.0"},{"col1":"0.0"},{"col1":"0.0"}]
